{"type": "FeatureCollection", "features": [ {"type": "Feature", "properties": {"norad_id": 33939, "name": "COSMOS 2251 DEB", "group": "cosmos-2251-debris", "lat": -22.223223538098026, "lon": 64.458770587279, "alt_km": 569.8783155491892, "timestamp": "2025-12-17T09:00:17.540972+00:00", "meta": {"OBJECT_NAME": "COSMOS 2251 DEB", "OBJECT_ID": "1993-036EU", "EPOCH": "2025-12-16T21:54:16.902432", "MEAN_MOTION": 15.0020173, "ECCENTRICITY": 0.00040252, "INCLINATION": 74.007, "RA_OF_ASC_NODE": 72.1297, "ARG_OF_PERICENTER": 38.6501, "MEAN_ANOMALY": 321.4973, "EPHEMERIS_TYPE": 0, "CLASSIFICATION_TYPE": "U", "NORAD_CAT_ID": 33939, "ELEMENT_SET_NO": 999, "REV_AT_EPOCH": 88815, "BSTAR": 0.002375807, "MEAN_MOTION_DOT": 0.00029803, "MEAN_MOTION_DDOT": 0}, "tle": {"line1": "1 33939U 93036EU  25350.91269563  .00029803  00000+0  23758-2 0  9992", "line2": "2 33939  74.0070  72.1297 0004025  38.6501 321.4973 15.00201730888157"}}, "geometry": {"type": "Point", "coordinates": [64.458770587279, -22.223223538098026]}}, {"type": "Feature", "properties": {"norad_id": 33940, "name": "COSMOS 2251 DEB", "group": "cosmos-2251-debris", "lat": 38.69091411942321, "lon": -58.58096959614929, "alt_km": 691.6506758197147, "timestamp": "2025-12-17T09:00:17.540982+00:00", "meta": {"OBJECT_NAME": "COSMOS 2251 DEB", "OBJECT_ID": "1993-036EV", "EPOCH": "2025-12-16T19:45:09.583776", "MEAN_MOTION": 14.58834557, "ECCENTRICITY": 0.001112, "INCLINATION": 74.0385, "RA_OF_ASC_NODE": 135.7213, "ARG_OF_PERICENTER": 215.7084, "MEAN_ANOMALY": 265.0436, "EPHEMERIS_TYPE": 0, "CLASSIFICATION_TYPE": "U", "NORAD_CAT_ID": 33940, "ELEMENT_SET_NO": 999, "REV_AT_EPOCH": 88653, "BSTAR": 0.00083115196, "MEAN_MOTION_DOT": 3.865e-05, "MEAN_MOTION_DDOT": 0}, "tle": {"line1": "1 33940U 93036EV  25350.82302759  .00003865  00000+0  83115-3 0  9993", "line2": "2 33940  74.0385 135.7213 0011120 215.7084 265.0436 14.58834557886538"}}, "geometry": {"type": "Point", "coordinates": [-58.58096959614929, 38.69091411942321]}}, {"type": "Feature", "properties": {"norad_id": 33942, "name": "COSMOS 2251 DEB", "group": "cosmos-2251-debris", "lat": -10.170226725914583, "lon": -96.6511726934099, "alt_km": 754.3266122681162, "timestamp": "2025-12-17T09:00:17.540992+00:00", "meta": {"OBJECT_NAME": "COSMOS 2251 DEB", "OBJECT_ID": "1993-036EX", "EPOCH": "2025-12-16T19:57:18.307296", "MEAN_MOTION": 14.37994713, "ECCENTRICITY": 0.00204961, "INCLINATION": 74.0366, "RA_OF_ASC_NODE": 267.2932, "ARG_OF_PERICENTER": 349.7662, "MEAN_ANOMALY": 66.0672, "EPHEMERIS_TYPE": 0, "CLASSIFICATION_TYPE": "U", "NORAD_CAT_ID": 33942, "ELEMENT_SET_NO": 999, "REV_AT_EPOCH": 88193, "BSTAR": 0.00020059118, "MEAN_MOTION_DOT": 5.82e-06, "MEAN_MOTION_DDOT": 0}, "tle": {"line1": "1 33942U 93036EX  25350.83146189  .00000582  00000+0  20059-3 0  9990", "line2": "2 33942  74.0366 267.2932 0020496 349.7662  66.0672 14.37994713881932"}}, "geometry": {"type": "Point", "coordinates": [-96.6511726934099, -10.170226725914583]}}, {"type": "Feature", "properties": {"norad_id": 33944, "name": "COSMOS 2251 DEB", "group": "cosmos-2251-debris", "lat": -32.03667952162469, "lon": 130.71362584789406, "alt_km": 852.8968461078102, "timestamp": "2025-12-17T09:00:17.541002+00:00", "meta": {"OBJECT_NAME": "COSMOS 2251 DEB", "OBJECT_ID": "1993-036EZ", "EPOCH": "2025-12-16T23:58:45.683040", "MEAN_MOTION": 14.37353032, "ECCENTRICITY": 0.01123511, "INCLINATION": 74.0404, "RA_OF_ASC_NODE": 301.0895, "ARG_OF_PERICENTER": 39.5947, "MEAN_ANOMALY": 28.5245, "EPHEMERIS_TYPE": 0, "CLASSIFICATION_TYPE": "U", "NORAD_CAT_ID": 33944, "ELEMENT_SET_NO": 999, "REV_AT_EPOCH": 88089, "BSTAR": 0.00032121359, "MEAN_MOTION_DOT": 1.004e-05, "MEAN_MOTION_DDOT": 0}, "tle": {"line1": "1 33944U 93036EZ  25350.99913985  .00001004  00000+0  32121-3 0  9998", "line2": "2 33944  74.0404 301.0895 0112351  39.5947  28.5245 14.37353032880890"}}, "geometry": {"type": "Point", "coordinates": [130.71362584789406, -32.03667952162469]}}, {"type": "Feature", "properties": {"norad_id": 33945, "name": "COSMOS 2251 DEB", "group": "cosmos-2251-debris", "lat": -38.160744657527665, "lon": -75.23112897126164, "alt_km": 775.1745089324504, "timestamp": "2025-12-17T09:00:17.541012+00:00", "meta": {"OBJECT_NAME": "COSMOS 2251 DEB", "OBJECT_ID": "1993-036FA", "EPOCH": "2025-12-16T23:08:55.262400", "MEAN_MOTION": 14.3460446, "ECCENTRICITY": 0.00220923, "INCLINATION": 74.03, "RA_OF_ASC_NODE": 298.5256, "ARG_OF_PERICENTER": 23.7035, "MEAN_ANOMALY": 336.513, "EPHEMERIS_TYPE": 0, "CLASSIFICATION_TYPE": "U", "NORAD_CAT_ID": 33945, "ELEMENT_SET_NO": 999, "REV_AT_EPOCH": 88076, "BSTAR": 0.000124169, "MEAN_MOTION_DOT": 3.26e-06, "MEAN_MOTION_DDOT": 0}, "tle": {"line1": "1 33945U 93036FA  25350.96452850  .00000326  00000+0  12417-3 0  9997", "line2": "2 33945  74.0300 298.5256 0022092  23.7035 336.5130 14.34604460880764"}}, "geometry": {"type": "Point", "coordinates": [-75.23112897126164, -38.160744657527665]}}, {"type": "Feature", "properties": {"norad_id": 33948, "name": "COSMOS 2251 DEB", "group": "cosmos-2251-debris", "lat": -6.313432043426249, "lon": 118.44459137010672, "alt_km": 792.6510956995935, "timestamp": "2025-12-17T09:00:17.541022+00:00", "meta": {"OBJECT_NAME": "COSMOS 2251 DEB", "OBJECT_ID": "1993-036FD", "EPOCH": "2025-12-16T07:03:12.623040", "MEAN_MOTION": 14.35633717, "ECCENTRICITY": 0.00228695, "INCLINATION": 74.0358, "RA_OF_ASC_NODE": 298.6128, "ARG_OF_PERICENTER": 13.5461, "MEAN_ANOMALY": 346.63, "EPHEMERIS_TYPE": 0, "CLASSIFICATION_TYPE": "U", "NORAD_CAT_ID": 33948, "ELEMENT_SET_NO": 999, "REV_AT_EPOCH": 88074, "BSTAR": 0.00019251642, "MEAN_MOTION_DOT": 5.31e-06, "MEAN_MOTION_DDOT": 0}, "tle": {"line1": "1 33948U 93036FD  25350.29389610  .00000531  00000+0  19252-3 0  9991", "line2": "2 33948  74.0358 298.6128 0022869  13.5461 346.6300 14.35633717880748"}}, "geometry": {"type": "Point", "coordinates": [118.44459137010672, -6.313432043426249]}}, {"type": "Feature", "properties": {"norad_id": 33971, "name": "COSMOS 2251 DEB", "group": "cosmos-2251-debris", "lat": -35.899512720513655, "lon": -126.80140941011697, "alt_km": 752.9628968894704, "timestamp": "2025-12-17T09:00:17.541032+00:00", "meta": {"OBJECT_NAME": "COSMOS 2251 DEB", "OBJECT_ID": "1993-036FE", "EPOCH": "2025-12-16T23:13:21.455616", "MEAN_MOTION": 14.39732793, "ECCENTRICITY": 0.00187023, "INCLINATION": 74.0246, "RA_OF_ASC_NODE": 245.9195, "ARG_OF_PERICENTER": 345.6118, "MEAN_ANOMALY": 25.2588, "EPHEMERIS_TYPE": 0, "CLASSIFICATION_TYPE": "U", "NORAD_CAT_ID": 33971, "ELEMENT_SET_NO": 999, "REV_AT_EPOCH": 88200, "BSTAR": 0.00022598523, "MEAN_MOTION_DOT": 6.83e-06, "MEAN_MOTION_DDOT": 0}, "tle": {"line1": "1 33971U 93036FE  25350.96760944  .00000683  00000+0  22599-3 0  9990", "line2": "2 33971  74.0246 245.9195 0018702 345.6118  25.2588 14.39732793882005"}}, "geometry": {"type": "Point", "coordinates": [-126.80140941011697, -35.899512720513655]}}, {"type": "Feature", "properties": {"norad_id": 33972, "name": "COSMOS 2251 DEB", "group": "cosmos-2251-debris", "lat": -20.88441358930436, "lon": 8.4155757529082, "alt_km": 849.6544400971698, "timestamp": "2025-12-17T09:00:17.541043+00:00", "meta": {"OBJECT_NAME": "COSMOS 2251 DEB", "OBJECT_ID": "1993-036FF", "EPOCH": "2025-12-16T13:58:43.061376", "MEAN_MOTION": 14.3625194, "ECCENTRICITY": 0.01234613, "INCLINATION": 73.9939, "RA_OF_ASC_NODE": 183.5873, "ARG_OF_PERICENTER": 350.5001, "MEAN_ANOMALY": 74.5972, "EPHEMERIS_TYPE": 0, "CLASSIFICATION_TYPE": "U", "NORAD_CAT_ID": 33972, "ELEMENT_SET_NO": 999, "REV_AT_EPOCH": 87129, "BSTAR": 0.00089755376, "MEAN_MOTION_DOT": 2.832e-05, "MEAN_MOTION_DDOT": 0}, "tle": {"line1": "1 33972U 93036FF  25350.58244284  .00002832  00000+0  89755-3 0  9998", "line2": "2 33972  73.9939 183.5873 0123461 350.5001  74.5972 14.36251940871298"}}, "geometry": {"type": "Point", "coordinates": [8.4155757529082, -20.88441358930436]}}, {"type": "Feature", "properties": {"norad_id": 33973, "name": "COSMOS 2251 DEB", "group": "cosmos-2251-debris", "lat": 67.77565781244546, "lon": -130.33761143859923, "alt_km": 766.5107866311673, "timestamp": "2025-12-17T09:00:17.541053+00:00", "meta": {"OBJECT_NAME": "COSMOS 2251 DEB", "OBJECT_ID": "1993-036FG", "EPOCH": "2025-12-16T18:06:24.763392", "MEAN_MOTION": 14.45395282, "ECCENTRICITY": 0.00473614, "INCLINATION": 74.0086, "RA_OF_ASC_NODE": 95.397, "ARG_OF_PERICENTER": 273.0895, "MEAN_ANOMALY": 203.926, "EPHEMERIS_TYPE": 0, "CLASSIFICATION_TYPE": "U", "NORAD_CAT_ID": 33973, "ELEMENT_SET_NO": 999, "REV_AT_EPOCH": 88658, "BSTAR": 0.00013302356, "MEAN_MOTION_DOT": 4.46e-06, "MEAN_MOTION_DDOT": 0}, "tle": {"line1": "1 33973U 93036FG  25350.75445328  .00000446  00000+0  13302-3 0  9994", "line2": "2 33973  74.0086  95.3970 0047361 273.0895 203.9260 14.45395282886580"}}, "geometry": {"type": "Point", "coordinates": [-130.33761143859923, 67.77565781244546]}}, {"type": "Feature", "properties": {"norad_id": 33975, "name": "COSMOS 2251 DEB", "group": "cosmos-2251-debris", "lat": 18.53532077548451, "lon": 81.89767967500241, "alt_km": 1029.0452359408873, "timestamp": "2025-12-17T09:00:17.541063+00:00", "meta": {"OBJECT_NAME": "COSMOS 2251 DEB", "OBJECT_ID": "1993-036FJ", "EPOCH": "2025-12-16T22:37:25.119840", "MEAN_MOTION": 14.00533681, "ECCENTRICITY": 0.01911997, "INCLINATION": 73.802, "RA_OF_ASC_NODE": 77.065, "ARG_OF_PERICENTER": 209.3128, "MEAN_ANOMALY": 149.7173, "EPHEMERIS_TYPE": 0, "CLASSIFICATION_TYPE": "U", "NORAD_CAT_ID": 33975, "ELEMENT_SET_NO": 999, "REV_AT_EPOCH": 85888, "BSTAR": 0.00050695407, "MEAN_MOTION_DOT": 8.56e-06, "MEAN_MOTION_DDOT": 0}, "tle": {"line1": "1 33975U 93036FJ  25350.94265185  .00000856  00000+0  50695-3 0  9999", "line2": "2 33975  73.8020  77.0650 0191199 209.3128 149.7173 14.00533681858889"}}, "geometry": {"type": "Point", "coordinates": [81.89767967500241, 18.53532077548451]}}]}